[{"OBJECT_NAME":"STARLINK-35442","OBJECT_ID":"2025-253A","EPOCH":"2026-03-09T10:44:02.698944","MEAN_MOTION":15.27611453,"ECCENTRICITY":0.0003579,"INCLINATION":43.0024,"RA_OF_ASC_NODE":214.2065,"ARG_OF_PERICENTER":294.1681,"MEAN_ANOMALY":65.8797,"EPHEMERIS_TYPE":0,"CLASSIFICATION_TYPE":"U","NORAD_CAT_ID":66319,"ELEMENT_SET_NO":999,"REV_AT_EPOCH":2020,"BSTAR":0.0015497697,"MEAN_MOTION_DOT":0.00042677,"MEAN_MOTION_DDOT":0},{"OBJECT_NAME":"AIST-2 (RS43)","OBJECT_ID":"2013-015D","EPOCH":"2026-03-09T22:52:25.813056","MEAN_MOTION":15.25079544,"ECCENTRICITY":0.00239979,"INCLINATION":64.8687,"RA_OF_ASC_NODE":221.5348,"ARG_OF_PERICENTER":248.8384,"MEAN_ANOMALY":111.0181,"EPHEMERIS_TYPE":0,"CLASSIFICATION_TYPE":"U","NORAD_CAT_ID":39133,"ELEMENT_SET_NO":999,"REV_AT_EPOCH":70876,"BSTAR":0.00037899099,"MEAN_MOTION_DOT":9.402e-5,"MEAN_MOTION_DDOT":0}]
